{"type": "FeatureCollection", "features": [ {"type": "Feature", "properties": {"norad_id": 31183, "name": "FENGYUN 1C DEB", "group": "fengyun-1c-debris", "lat": -11.327841868047251, "lon": 153.44380492726745, "alt_km": 732.4514114498679, "timestamp": "2025-12-17T04:57:44.646622+00:00", "meta": {"OBJECT_NAME": "FENGYUN 1C DEB", "OBJECT_ID": "1999-025BJM", "EPOCH": "2025-12-16T21:44:31.854336", "MEAN_MOTION": 14.50472332, "ECCENTRICITY": 0.00477038, "INCLINATION": 99.0356, "RA_OF_ASC_NODE": 334.9479, "ARG_OF_PERICENTER": 95.1079, "MEAN_ANOMALY": 325.6937, "EPHEMERIS_TYPE": 0, "CLASSIFICATION_TYPE": "U", "NORAD_CAT_ID": 31183, "ELEMENT_SET_NO": 999, "REV_AT_EPOCH": 97543, "BSTAR": 0.00090427037, "MEAN_MOTION_DOT": 3.538e-05, "MEAN_MOTION_DDOT": 0}, "tle": {"line1": "1 31183U 99025BJM 25350.90592424  .00003538  00000+0  90427-3 0  9994", "line2": "2 31183  99.0356 334.9479 0047703  95.1079 325.6937 14.50472332975435"}}, "geometry": {"type": "Point", "coordinates": [153.44380492726745, -11.327841868047251]}}, {"type": "Feature", "properties": {"norad_id": 31185, "name": "FENGYUN 1C DEB", "group": "fengyun-1c-debris", "lat": 77.88174906732974, "lon": -146.05792105469317, "alt_km": 846.0290948354805, "timestamp": "2025-12-17T04:57:44.646632+00:00", "meta": {"OBJECT_NAME": "FENGYUN 1C DEB", "OBJECT_ID": "1999-025BJP", "EPOCH": "2025-12-03T06:44:56.905152", "MEAN_MOTION": 14.03019915, "ECCENTRICITY": 0.0041359, "INCLINATION": 98.8321, "RA_OF_ASC_NODE": 334.0356, "ARG_OF_PERICENTER": 132.5488, "MEAN_ANOMALY": 227.9182, "EPHEMERIS_TYPE": 0, "CLASSIFICATION_TYPE": "U", "NORAD_CAT_ID": 31185, "ELEMENT_SET_NO": 999, "REV_AT_EPOCH": 62204, "BSTAR": 0.0004459, "MEAN_MOTION_DOT": 6.55e-06, "MEAN_MOTION_DDOT": 0}, "tle": {"line1": "1 31185U 99025BJP 25337.28121418  .00000655  00000+0  44590-3 0  9990", "line2": "2 31185  98.8321 334.0356 0041359 132.5488 227.9182 14.03019915622046"}}, "geometry": {"type": "Point", "coordinates": [-146.05792105469317, 77.88174906732974]}}, {"type": "Feature", "properties": {"norad_id": 31186, "name": "FENGYUN 1C DEB", "group": "fengyun-1c-debris", "lat": 76.836107992324, "lon": -137.05328333751524, "alt_km": 825.5743605462467, "timestamp": "2025-12-17T04:57:44.646640+00:00", "meta": {"OBJECT_NAME": "FENGYUN 1C DEB", "OBJECT_ID": "1999-025BJQ", "EPOCH": "2025-12-07T00:08:36.055104", "MEAN_MOTION": 14.12891869, "ECCENTRICITY": 0.00265947, "INCLINATION": 99.1777, "RA_OF_ASC_NODE": 256.2241, "ARG_OF_PERICENTER": 78.4554, "MEAN_ANOMALY": 344.6063, "EPHEMERIS_TYPE": 0, "CLASSIFICATION_TYPE": "U", "NORAD_CAT_ID": 31186, "ELEMENT_SET_NO": 999, "REV_AT_EPOCH": 96024, "BSTAR": 0.00076036897, "MEAN_MOTION_DOT": 1.373e-05, "MEAN_MOTION_DDOT": 0}, "tle": {"line1": "1 31186U 99025BJQ 25341.00597286  .00001373  00000+0  76037-3 0  9995", "line2": "2 31186  99.1777 256.2241 0026594  78.4554 344.6063 14.12891869960248"}}, "geometry": {"type": "Point", "coordinates": [-137.05328333751524, 76.836107992324]}}, {"type": "Feature", "properties": {"norad_id": 31187, "name": "FENGYUN 1C DEB", "group": "fengyun-1c-debris", "lat": 0.7217087694384915, "lon": -144.95541604836748, "alt_km": 832.1823137047923, "timestamp": "2025-12-17T04:57:44.646650+00:00", "meta": {"OBJECT_NAME": "FENGYUN 1C DEB", "OBJECT_ID": "1999-025BJR", "EPOCH": "2025-12-15T21:41:48.637824", "MEAN_MOTION": 14.59488451, "ECCENTRICITY": 0.02197258, "INCLINATION": 99.2423, "RA_OF_ASC_NODE": 213.7112, "ARG_OF_PERICENTER": 214.122, "MEAN_ANOMALY": 144.5688, "EPHEMERIS_TYPE": 0, "CLASSIFICATION_TYPE": "U", "NORAD_CAT_ID": 31187, "ELEMENT_SET_NO": 999, "REV_AT_EPOCH": 69146, "BSTAR": 0.0021900644, "MEAN_MOTION_DOT": 0.00014541, "MEAN_MOTION_DDOT": 0}, "tle": {"line1": "1 31187U 99025BJR 25349.90403516  .00014541  00000+0  21901-2 0  9995", "line2": "2 31187  99.2423 213.7112 0219725 214.1220 144.5688 14.59488451691467"}}, "geometry": {"type": "Point", "coordinates": [-144.95541604836748, 0.7217087694384915]}}, {"type": "Feature", "properties": {"norad_id": 31188, "name": "FENGYUN 1C DEB", "group": "fengyun-1c-debris", "lat": -57.068202285438105, "lon": 72.72636717587287, "alt_km": 801.0101927078276, "timestamp": "2025-12-17T04:57:44.646659+00:00", "meta": {"OBJECT_NAME": "FENGYUN 1C DEB", "OBJECT_ID": "1999-025BJS", "EPOCH": "2025-12-16T18:02:32.554752", "MEAN_MOTION": 14.23850924, "ECCENTRICITY": 0.00605054, "INCLINATION": 98.7493, "RA_OF_ASC_NODE": 58.5194, "ARG_OF_PERICENTER": 237.9393, "MEAN_ANOMALY": 252.4157, "EPHEMERIS_TYPE": 0, "CLASSIFICATION_TYPE": "U", "NORAD_CAT_ID": 31188, "ELEMENT_SET_NO": 999, "REV_AT_EPOCH": 96393, "BSTAR": 0.0011252677, "MEAN_MOTION_DOT": 2.581e-05, "MEAN_MOTION_DDOT": 0}, "tle": {"line1": "1 31188U 99025BJS 25350.75176568  .00002581  00000+0  11253-2 0  9995", "line2": "2 31188  98.7493  58.5194 0060505 237.9393 252.4157 14.23850924963931"}}, "geometry": {"type": "Point", "coordinates": [72.72636717587287, -57.068202285438105]}}, {"type": "Feature", "properties": {"norad_id": 31190, "name": "FENGYUN 1C DEB", "group": "fengyun-1c-debris", "lat": 45.114226572938925, "lon": -167.23470221876698, "alt_km": 896.0852156220753, "timestamp": "2025-12-17T04:57:44.646668+00:00", "meta": {"OBJECT_NAME": "FENGYUN 1C DEB", "OBJECT_ID": "1999-025BJU", "EPOCH": "2025-12-15T23:14:05.075520", "MEAN_MOTION": 14.03609027, "ECCENTRICITY": 0.00676763, "INCLINATION": 98.819, "RA_OF_ASC_NODE": 2.5971, "ARG_OF_PERICENTER": 250.3103, "MEAN_ANOMALY": 109.0754, "EPHEMERIS_TYPE": 0, "CLASSIFICATION_TYPE": "U", "NORAD_CAT_ID": 31190, "ELEMENT_SET_NO": 999, "REV_AT_EPOCH": 95592, "BSTAR": 0.00091857664, "MEAN_MOTION_DOT": 1.428e-05, "MEAN_MOTION_DDOT": 0}, "tle": {"line1": "1 31190U 99025BJU 25349.96811430  .00001428  00000+0  91858-3 0  9992", "line2": "2 31190  98.8190   2.5971 0067676 250.3103 109.0754 14.03609027955929"}}, "geometry": {"type": "Point", "coordinates": [-167.23470221876698, 45.114226572938925]}}, {"type": "Feature", "properties": {"norad_id": 31191, "name": "FENGYUN 1C DEB", "group": "fengyun-1c-debris", "lat": -63.64842983628106, "lon": 54.03131608866752, "alt_km": 733.4988623523232, "timestamp": "2025-12-17T04:57:44.646677+00:00", "meta": {"OBJECT_NAME": "FENGYUN 1C DEB", "OBJECT_ID": "1999-025BJV", "EPOCH": "2025-12-16T22:49:58.112256", "MEAN_MOTION": 14.4080076, "ECCENTRICITY": 0.00924502, "INCLINATION": 98.7828, "RA_OF_ASC_NODE": 251.9552, "ARG_OF_PERICENTER": 181.8766, "MEAN_ANOMALY": 178.2088, "EPHEMERIS_TYPE": 0, "CLASSIFICATION_TYPE": "U", "NORAD_CAT_ID": 31191, "ELEMENT_SET_NO": 999, "REV_AT_EPOCH": 98073, "BSTAR": 0.00028062635, "MEAN_MOTION_DOT": 8.96e-06, "MEAN_MOTION_DDOT": 0}, "tle": {"line1": "1 31191U 99025BJV 25350.95136704  .00000896  00000+0  28063-3 0  9994", "line2": "2 31191  98.7828 251.9552 0092450 181.8766 178.2088 14.40800760980736"}}, "geometry": {"type": "Point", "coordinates": [54.03131608866752, -63.64842983628106]}}, {"type": "Feature", "properties": {"norad_id": 31192, "name": "FENGYUN 1C DEB", "group": "fengyun-1c-debris", "lat": -10.314658820885834, "lon": 153.18788843931605, "alt_km": 852.4308633599076, "timestamp": "2025-12-17T04:57:44.646686+00:00", "meta": {"OBJECT_NAME": "FENGYUN 1C DEB", "OBJECT_ID": "1999-025BJW", "EPOCH": "2025-12-15T09:50:54.709152", "MEAN_MOTION": 14.20964163, "ECCENTRICITY": 0.02596988, "INCLINATION": 98.5532, "RA_OF_ASC_NODE": 333.0161, "ARG_OF_PERICENTER": 96.0065, "MEAN_ANOMALY": 267.077, "EPHEMERIS_TYPE": 0, "CLASSIFICATION_TYPE": "U", "NORAD_CAT_ID": 31192, "ELEMENT_SET_NO": 999, "REV_AT_EPOCH": 96781, "BSTAR": 0.00028547749, "MEAN_MOTION_DOT": 8.24e-06, "MEAN_MOTION_DDOT": 0}, "tle": {"line1": "1 31192U 99025BJW 25349.41035543  .00000824  00000+0  28548-3 0  9992", "line2": "2 31192  98.5532 333.0161 0259698  96.0065 267.0770 14.20964163967818"}}, "geometry": {"type": "Point", "coordinates": [153.18788843931605, -10.314658820885834]}}, {"type": "Feature", "properties": {"norad_id": 31194, "name": "FENGYUN 1C DEB", "group": "fengyun-1c-debris", "lat": 4.422232826825557, "lon": -120.24237058229721, "alt_km": 777.7173928244092, "timestamp": "2025-12-17T04:57:44.646695+00:00", "meta": {"OBJECT_NAME": "FENGYUN 1C DEB", "OBJECT_ID": "1999-025BJY", "EPOCH": "2025-12-16T15:34:11.294976", "MEAN_MOTION": 14.36673691, "ECCENTRICITY": 0.00571171, "INCLINATION": 98.9638, "RA_OF_ASC_NODE": 239.8764, "ARG_OF_PERICENTER": 267.626, "MEAN_ANOMALY": 91.8385, "EPHEMERIS_TYPE": 0, "CLASSIFICATION_TYPE": "U", "NORAD_CAT_ID": 31194, "ELEMENT_SET_NO": 999, "REV_AT_EPOCH": 97183, "BSTAR": 0.00076915443, "MEAN_MOTION_DOT": 2.26e-05, "MEAN_MOTION_DDOT": 0}, "tle": {"line1": "1 31194U 99025BJY 25350.64874184  .00002260  00000+0  76915-3 0  9990", "line2": "2 31194  98.9638 239.8764 0057117 267.6260  91.8385 14.36673691971830"}}, "geometry": {"type": "Point", "coordinates": [-120.24237058229721, 4.422232826825557]}}, {"type": "Feature", "properties": {"norad_id": 31195, "name": "FENGYUN 1C DEB", "group": "fengyun-1c-debris", "lat": 49.700942136125164, "lon": 13.905627845381607, "alt_km": 918.6102505936324, "timestamp": "2025-12-17T04:57:44.646704+00:00", "meta": {"OBJECT_NAME": "FENGYUN 1C DEB", "OBJECT_ID": "1999-025BJZ", "EPOCH": "2025-12-16T21:53:41.024832", "MEAN_MOTION": 14.07981819, "ECCENTRICITY": 0.01720794, "INCLINATION": 98.7789, "RA_OF_ASC_NODE": 24.1182, "ARG_OF_PERICENTER": 169.4326, "MEAN_ANOMALY": 191.0535, "EPHEMERIS_TYPE": 0, "CLASSIFICATION_TYPE": "U", "NORAD_CAT_ID": 31195, "ELEMENT_SET_NO": 999, "REV_AT_EPOCH": 96157, "BSTAR": 3.907808e-05, "MEAN_MOTION_DOT": 3.4e-07, "MEAN_MOTION_DDOT": 0}, "tle": {"line1": "1 31195U 99025BJZ 25350.91228038  .00000034  00000+0  39078-4 0  9999", "line2": "2 31195  98.7789  24.1182 0172079 169.4326 191.0535 14.07981819961574"}}, "geometry": {"type": "Point", "coordinates": [13.905627845381607, 49.700942136125164]}}]}